CCSDS_OMM_VERS = 2.0
CREATION_DATE  = 
ORIGINATOR     = 

OBJECT_NAME    = COSMOS 2242
OBJECT_ID      = 1993-024A
CENTER_NAME    = EARTH
REF_FRAME      = TEME
TIME_SYSTEM    = UTC
MEAN_ELEMENT_THEORY = SGP/SGP4

EPOCH          = 2026-03-22T22:35:23.256960
MEAN_MOTION    = 14.96602023
ECCENTRICITY   = .00149174
INCLINATION    = 82.5153
RA_OF_ASC_NODE = 254.0374
ARG_OF_PERICENTER = 260.1161
MEAN_ANOMALY   = 99.8378

EPHEMERIS_TYPE = 0
CLASSIFICATION_TYPE = U
NORAD_CAT_ID   = 22626
ELEMENT_SET_NO = 999
REV_AT_EPOCH   = 78237
BSTAR          = .17916724E-3
MEAN_MOTION_DOT = .207E-4
MEAN_MOTION_DDOT = 0

CCSDS_OMM_VERS = 2.0
CREATION_DATE  = 
ORIGINATOR     = 

OBJECT_NAME    = SL-16 R/B
OBJECT_ID      = 1993-059B
CENTER_NAME    = EARTH
REF_FRAME      = TEME
TIME_SYSTEM    = UTC
MEAN_ELEMENT_THEORY = SGP/SGP4

EPOCH          = 2026-03-23T04:04:18.430464
MEAN_MOTION    = 14.17235148
ECCENTRICITY   = .00177347
INCLINATION    = 70.9929
RA_OF_ASC_NODE = 342.7020
ARG_OF_PERICENTER = 197.0379
MEAN_ANOMALY   = 163.0152

EPHEMERIS_TYPE = 0
CLASSIFICATION_TYPE = U
NORAD_CAT_ID   = 22803
ELEMENT_SET_NO = 999
REV_AT_EPOCH   = 68144
BSTAR          = .71960928E-4
MEAN_MOTION_DOT = .97E-6
MEAN_MOTION_DDOT = 0

CCSDS_OMM_VERS = 2.0
CREATION_DATE  = 
ORIGINATOR     = 

OBJECT_NAME    = ARIANE 40 R/B
OBJECT_ID      = 1993-061H
CENTER_NAME    = EARTH
REF_FRAME      = TEME
TIME_SYSTEM    = UTC
MEAN_ELEMENT_THEORY = SGP/SGP4

EPOCH          = 2026-03-23T02:32:38.610816
MEAN_MOTION    = 14.32867753
ECCENTRICITY   = .00097349
INCLINATION    = 98.4892
RA_OF_ASC_NODE = 150.7274
ARG_OF_PERICENTER = 240.7314
MEAN_ANOMALY   = 119.2898

EPHEMERIS_TYPE = 0
CLASSIFICATION_TYPE = U
NORAD_CAT_ID   = 22830
ELEMENT_SET_NO = 999
REV_AT_EPOCH   = 69602
BSTAR          = .97219901E-4
MEAN_MOTION_DOT = .222E-5
MEAN_MOTION_DDOT = 0

CCSDS_OMM_VERS = 2.0
CREATION_DATE  = 
ORIGINATOR     = 

OBJECT_NAME    = COSMOS 2278
OBJECT_ID      = 1994-023A
CENTER_NAME    = EARTH
REF_FRAME      = TEME
TIME_SYSTEM    = UTC
MEAN_ELEMENT_THEORY = SGP/SGP4

EPOCH          = 2026-03-23T05:56:12.132096
MEAN_MOTION    = 14.14377541
ECCENTRICITY   = .00089167
INCLINATION    = 71.0533
RA_OF_ASC_NODE = 146.7356
ARG_OF_PERICENTER = 350.9575
MEAN_ANOMALY   = 9.1385

EPHEMERIS_TYPE = 0
CLASSIFICATION_TYPE = U
NORAD_CAT_ID   = 23087
ELEMENT_SET_NO = 999
REV_AT_EPOCH   = 64672
BSTAR          = -.96986577E-4
MEAN_MOTION_DOT = -.233E-5
MEAN_MOTION_DDOT = 0

CCSDS_OMM_VERS = 2.0
CREATION_DATE  = 
ORIGINATOR     = 

OBJECT_NAME    = SL-16 R/B
OBJECT_ID      = 1994-023B
CENTER_NAME    = EARTH
REF_FRAME      = TEME
TIME_SYSTEM    = UTC
MEAN_ELEMENT_THEORY = SGP/SGP4

EPOCH          = 2026-03-23T05:12:34.787520
MEAN_MOTION    = 14.15011419
ECCENTRICITY   = .00054748
INCLINATION    = 71.0001
RA_OF_ASC_NODE = 42.4760
ARG_OF_PERICENTER = 272.6162
MEAN_ANOMALY   = 87.4334

EPHEMERIS_TYPE = 0
CLASSIFICATION_TYPE = U
NORAD_CAT_ID   = 23088
ELEMENT_SET_NO = 999
REV_AT_EPOCH   = 64800
BSTAR          = .13682558E-3
MEAN_MOTION_DOT = .217E-5
MEAN_MOTION_DDOT = 0

CCSDS_OMM_VERS = 2.0
CREATION_DATE  = 
ORIGINATOR     = 

OBJECT_NAME    = SL-16 R/B
OBJECT_ID      = 1994-074B
CENTER_NAME    = EARTH
REF_FRAME      = TEME
TIME_SYSTEM    = UTC
MEAN_ELEMENT_THEORY = SGP/SGP4

EPOCH          = 2026-03-23T02:47:44.544192
MEAN_MOTION    = 14.79422951
ECCENTRICITY   = .00068564
INCLINATION    = 97.7091
RA_OF_ASC_NODE = 112.3896
ARG_OF_PERICENTER = 165.2976
MEAN_ANOMALY   = 249.7752

EPHEMERIS_TYPE = 0
CLASSIFICATION_TYPE = U
NORAD_CAT_ID   = 23343
ELEMENT_SET_NO = 999
REV_AT_EPOCH   = 68923
BSTAR          = .75612241E-4
MEAN_MOTION_DOT = .515E-5
MEAN_MOTION_DDOT = 0

CCSDS_OMM_VERS = 2.0
CREATION_DATE  = 
ORIGINATOR     = 

OBJECT_NAME    = SL-16 R/B
OBJECT_ID      = 1994-077B
CENTER_NAME    = EARTH
REF_FRAME      = TEME
TIME_SYSTEM    = UTC
MEAN_ELEMENT_THEORY = SGP/SGP4

EPOCH          = 2026-03-23T02:56:44.937312
MEAN_MOTION    = 14.15568042
ECCENTRICITY   = .00023113
INCLINATION    = 70.9845
RA_OF_ASC_NODE = 324.2303
ARG_OF_PERICENTER = 198.8438
MEAN_ANOMALY   = 161.2599

EPHEMERIS_TYPE = 0
CLASSIFICATION_TYPE = U
NORAD_CAT_ID   = 23405
ELEMENT_SET_NO = 999
REV_AT_EPOCH   = 61813
BSTAR          = .12972351E-3
MEAN_MOTION_DOT = .206E-5
MEAN_MOTION_DDOT = 0

CCSDS_OMM_VERS = 2.0
CREATION_DATE  = 
ORIGINATOR     = 

OBJECT_NAME    = ARIANE 40+ R/B
OBJECT_ID      = 1995-021B
CENTER_NAME    = EARTH
REF_FRAME      = TEME
TIME_SYSTEM    = UTC
MEAN_ELEMENT_THEORY = SGP/SGP4

EPOCH          = 2026-03-23T05:32:28.348224
MEAN_MOTION    = 14.39781932
ECCENTRICITY   = .00079706
INCLINATION    = 98.4474
RA_OF_ASC_NODE = 153.5285
ARG_OF_PERICENTER = 101.4190
MEAN_ANOMALY   = 327.2879

EPHEMERIS_TYPE = 0
CLASSIFICATION_TYPE = U
NORAD_CAT_ID   = 23561
ELEMENT_SET_NO = 999
REV_AT_EPOCH   = 62119
BSTAR          = .11640656E-3
MEAN_MOTION_DOT = .322E-5
MEAN_MOTION_DDOT = 0

CCSDS_OMM_VERS = 2.0
CREATION_DATE  = 
ORIGINATOR     = 

OBJECT_NAME    = SL-16 R/B
OBJECT_ID      = 1995-058B
CENTER_NAME    = EARTH
REF_FRAME      = TEME
TIME_SYSTEM    = UTC
MEAN_ELEMENT_THEORY = SGP/SGP4

EPOCH          = 2026-03-23T04:49:29.772192
MEAN_MOTION    = 14.15500741
ECCENTRICITY   = .00101689
INCLINATION    = 71.0218
RA_OF_ASC_NODE = 151.8906
ARG_OF_PERICENTER = 100.7911
MEAN_ANOMALY   = 259.4358

EPHEMERIS_TYPE = 0
CLASSIFICATION_TYPE = U
NORAD_CAT_ID   = 23705
ELEMENT_SET_NO = 999
REV_AT_EPOCH   = 56976
BSTAR          = -.35201137E-4
MEAN_MOTION_DOT = -.116E-5
MEAN_MOTION_DDOT = 0

CCSDS_OMM_VERS = 2.0
CREATION_DATE  = 
ORIGINATOR     = 

OBJECT_NAME    = SL-16 R/B
OBJECT_ID      = 1996-051B
CENTER_NAME    = EARTH
REF_FRAME      = TEME
TIME_SYSTEM    = UTC
MEAN_ELEMENT_THEORY = SGP/SGP4

EPOCH          = 2026-03-23T04:43:48.563040
MEAN_MOTION    = 14.12419385
ECCENTRICITY   = .00139493
INCLINATION    = 70.7594
RA_OF_ASC_NODE = 146.6508
ARG_OF_PERICENTER = 126.6235
MEAN_ANOMALY   = 233.6170

EPHEMERIS_TYPE = 0
CLASSIFICATION_TYPE = U
NORAD_CAT_ID   = 24298
ELEMENT_SET_NO = 999
REV_AT_EPOCH   = 52355
BSTAR          = .8012156E-4
MEAN_MOTION_DOT = .99E-6
MEAN_MOTION_DDOT = 0

CCSDS_OMM_VERS = 2.0
CREATION_DATE  = 
ORIGINATOR     = 

OBJECT_NAME    = ORBVIEW 2 (SEASTAR)
OBJECT_ID      = 1997-037A
CENTER_NAME    = EARTH
REF_FRAME      = TEME
TIME_SYSTEM    = UTC
MEAN_ELEMENT_THEORY = SGP/SGP4

EPOCH          = 2026-03-23T05:15:08.663328
MEAN_MOTION    = 14.35504132
ECCENTRICITY   = .00026595
INCLINATION    = 98.8591
RA_OF_ASC_NODE = 246.8907
ARG_OF_PERICENTER = 43.4009
MEAN_ANOMALY   = 316.7385

EPHEMERIS_TYPE = 0
CLASSIFICATION_TYPE = U
NORAD_CAT_ID   = 24883
ELEMENT_SET_NO = 999
REV_AT_EPOCH   = 51041
BSTAR          = .11794847E-3
MEAN_MOTION_DOT = .293E-5
MEAN_MOTION_DDOT = 0

CCSDS_OMM_VERS = 2.0
CREATION_DATE  = 
ORIGINATOR     = 

OBJECT_NAME    = SL-16 R/B
OBJECT_ID      = 1998-043G
CENTER_NAME    = EARTH
REF_FRAME      = TEME
TIME_SYSTEM    = UTC
MEAN_ELEMENT_THEORY = SGP/SGP4

EPOCH          = 2026-03-23T03:11:12.131520
MEAN_MOTION    = 14.26052758
ECCENTRICITY   = .0009506
INCLINATION    = 98.8278
RA_OF_ASC_NODE = 35.5933
ARG_OF_PERICENTER = 341.7468
MEAN_ANOMALY   = 18.3369

EPHEMERIS_TYPE = 0
CLASSIFICATION_TYPE = U
NORAD_CAT_ID   = 25400
ELEMENT_SET_NO = 999
REV_AT_EPOCH   = 44090
BSTAR          = .52578079E-4
MEAN_MOTION_DOT = .8E-6
MEAN_MOTION_DDOT = 0

